{"fetched_at":"2026-07-06T08:46:41.354Z","source":"https://celestrak.org/NORAD/elements/gp.php?GROUP=planet&FORMAT=JSON","constellation":"superdove","records":[{"OBJECT_NAME":"FLOCK 4Q-11","OBJECT_ID":"2023-174T","EPOCH":"2026-07-05T05:23:29.168160","CLASSIFICATION_TYPE":"U","MEAN_MOTION":15.50502621,"ECCENTRICITY":0.0006834,"INCLINATION":97.3861,"RA_OF_ASC_NODE":275.3842,"ARG_OF_PERICENTER":102.0151,"MEAN_ANOMALY":258.1867,"EPHEMERIS_TYPE":0,"NORAD_CAT_ID":58273,"ELEMENT_SET_NO":999,"REV_AT_EPOCH":14838,"BSTAR":0.00063798,"MEAN_MOTION_DOT":0.00036442,"MEAN_MOTION_DDOT":0},{"OBJECT_NAME":"FLOCK 4Q-28","OBJECT_ID":"2023-174AA","EPOCH":"2026-07-05T06:00:53.635392","CLASSIFICATION_TYPE":"U","MEAN_MOTION":15.56307136,"ECCENTRICITY":0.0005579,"INCLINATION":97.3877,"RA_OF_ASC_NODE":278.0543,"ARG_OF_PERICENTER":93.1656,"MEAN_ANOMALY":267.0237,"EPHEMERIS_TYPE":0,"NORAD_CAT_ID":58280,"ELEMENT_SET_NO":999,"REV_AT_EPOCH":14855,"BSTAR":0.0007003,"MEAN_MOTION_DOT":0.00049411,"MEAN_MOTION_DDOT":0},{"OBJECT_NAME":"FLOCK 4Q-27","OBJECT_ID":"2023-174AC","EPOCH":"2026-07-05T04:32:41.542080","CLASSIFICATION_TYPE":"U","MEAN_MOTION":15.56512963,"ECCENTRICITY":0.0004764,"INCLINATION":97.3802,"RA_OF_ASC_NODE":277.4043,"ARG_OF_PERICENTER":98.6174,"MEAN_ANOMALY":261.5621,"EPHEMERIS_TYPE":0,"NORAD_CAT_ID":58282,"ELEMENT_SET_NO":999,"REV_AT_EPOCH":14855,"BSTAR":0.0008912,"MEAN_MOTION_DOT":0.00063487,"MEAN_MOTION_DDOT":0},{"OBJECT_NAME":"FLOCK 4Q-7","OBJECT_ID":"2023-174BQ","EPOCH":"2026-07-05T05:02:19.316256","CLASSIFICATION_TYPE":"U","MEAN_MOTION":15.56828102,"ECCENTRICITY":0.0005473,"INCLINATION":97.391,"RA_OF_ASC_NODE":278.3254,"ARG_OF_PERICENTER":79.9664,"MEAN_ANOMALY":280.2208,"EPHEMERIS_TYPE":0,"NORAD_CAT_ID":58318,"ELEMENT_SET_NO":999,"REV_AT_EPOCH":14855,"BSTAR":0.000781,"MEAN_MOTION_DOT":0.00056235,"MEAN_MOTION_DDOT":0},{"OBJECT_NAME":"FLOCK 4Q-2","OBJECT_ID":"2023-174BS","EPOCH":"2026-07-05T14:18:56.147616","CLASSIFICATION_TYPE":"U","MEAN_MOTION":15.50502126,"ECCENTRICITY":0.00057056,"INCLINATION":97.3834,"RA_OF_ASC_NODE":275.4825,"ARG_OF_PERICENTER":80.6058,"MEAN_ANOMALY":279.5838,"EPHEMERIS_TYPE":0,"NORAD_CAT_ID":58320,"ELEMENT_SET_NO":999,"REV_AT_EPOCH":14845,"BSTAR":0.00053547737,"MEAN_MOTION_DOT":0.00030541,"MEAN_MOTION_DDOT":0},{"OBJECT_NAME":"FLOCK 4Q-9","OBJECT_ID":"2023-174BU","EPOCH":"2026-07-05T05:29:52.163808","CLASSIFICATION_TYPE":"U","MEAN_MOTION":15.50936665,"ECCENTRICITY":0.0006574,"INCLINATION":97.3858,"RA_OF_ASC_NODE":275.2068,"ARG_OF_PERICENTER":83.4067,"MEAN_ANOMALY":276.7933,"EPHEMERIS_TYPE":0,"NORAD_CAT_ID":58322,"ELEMENT_SET_NO":999,"REV_AT_EPOCH":14838,"BSTAR":0.00079459,"MEAN_MOTION_DOT":0.00046168,"MEAN_MOTION_DDOT":0},{"OBJECT_NAME":"FLOCK 4Q-4","OBJECT_ID":"2023-174BZ","EPOCH":"2026-07-05T05:36:56.428416","CLASSIFICATION_TYPE":"U","MEAN_MOTION":15.49521329,"ECCENTRICITY":0.0006567,"INCLINATION":97.3813,"RA_OF_ASC_NODE":274.3543,"ARG_OF_PERICENTER":102.4361,"MEAN_ANOMALY":257.7625,"EPHEMERIS_TYPE":0,"NORAD_CAT_ID":58327,"ELEMENT_SET_NO":999,"REV_AT_EPOCH":14835,"BSTAR":0.00066661,"MEAN_MOTION_DOT":0.00036787,"MEAN_MOTION_DDOT":0},{"OBJECT_NAME":"FLOCK 4Q-13","OBJECT_ID":"2023-174CA","EPOCH":"2026-07-05T05:43:13.382112","CLASSIFICATION_TYPE":"U","MEAN_MOTION":15.52532325,"ECCENTRICITY":0.0006618,"INCLINATION":97.4002,"RA_OF_ASC_NODE":277.5915,"ARG_OF_PERICENTER":86.3029,"MEAN_ANOMALY":273.8981,"EPHEMERIS_TYPE":0,"NORAD_CAT_ID":58328,"ELEMENT_SET_NO":999,"REV_AT_EPOCH":14847,"BSTAR":0.00061783,"MEAN_MOTION_DOT":0.0003794,"MEAN_MOTION_DDOT":0},{"OBJECT_NAME":"FLOCK 4BE-7","OBJECT_ID":"2024-149P","EPOCH":"2026-07-05T05:01:00.508224","CLASSIFICATION_TYPE":"U","MEAN_MOTION":15.41129001,"ECCENTRICITY":0.0003571,"INCLINATION":97.3751,"RA_OF_ASC_NODE":269.4402,"ARG_OF_PERICENTER":176.0879,"MEAN_ANOMALY":184.0397,"EPHEMERIS_TYPE":0,"NORAD_CAT_ID":60481,"ELEMENT_SET_NO":999,"REV_AT_EPOCH":10502,"BSTAR":0.00092041,"MEAN_MOTION_DOT":0.00038175,"MEAN_MOTION_DDOT":0},{"OBJECT_NAME":"FLOCK 4BE-36","OBJECT_ID":"2024-149U","EPOCH":"2026-07-05T05:03:45.534816","CLASSIFICATION_TYPE":"U","MEAN_MOTION":15.43304497,"ECCENTRICITY":0.0003973,"INCLINATION":97.3737,"RA_OF_ASC_NODE":270.8618,"ARG_OF_PERICENTER":180.6763,"MEAN_ANOMALY":179.448,"EPHEMERIS_TYPE":0,"NORAD_CAT_ID":60486,"ELEMENT_SET_NO":999,"REV_AT_EPOCH":10513,"BSTAR":0.00062343,"MEAN_MOTION_DOT":0.00027739,"MEAN_MOTION_DDOT":0},{"OBJECT_NAME":"FLOCK 4BE-25","OBJECT_ID":"2024-149V","EPOCH":"2026-07-05T05:27:40.961088","CLASSIFICATION_TYPE":"U","MEAN_MOTION":15.39343171,"ECCENTRICITY":0.0002977,"INCLINATION":97.379,"RA_OF_ASC_NODE":269.5056,"ARG_OF_PERICENTER":165.3096,"MEAN_ANOMALY":194.8236,"EPHEMERIS_TYPE":0,"NORAD_CAT_ID":60487,"ELEMENT_SET_NO":999,"REV_AT_EPOCH":10501,"BSTAR":0.00060084,"MEAN_MOTION_DOT":0.00023424,"MEAN_MOTION_DDOT":0},{"OBJECT_NAME":"FLOCK 4BE-31","OBJECT_ID":"2024-149W","EPOCH":"2026-07-05T05:23:58.786944","CLASSIFICATION_TYPE":"U","MEAN_MOTION":15.44851343,"ECCENTRICITY":0.0003025,"INCLINATION":97.3792,"RA_OF_ASC_NODE":271.7872,"ARG_OF_PERICENTER":176.2961,"MEAN_ANOMALY":183.8311,"EPHEMERIS_TYPE":0,"NORAD_CAT_ID":60488,"ELEMENT_SET_NO":999,"REV_AT_EPOCH":10516,"BSTAR":0.00070614,"MEAN_MOTION_DOT":0.00033135,"MEAN_MOTION_DDOT":0},{"OBJECT_NAME":"FLOCK 4BE-20","OBJECT_ID":"2024-149X","EPOCH":"2026-07-05T04:47:54.690720","CLASSIFICATION_TYPE":"U","MEAN_MOTION":15.3861249,"ECCENTRICITY":0.0004155,"INCLINATION":97.3689,"RA_OF_ASC_NODE":268.3111,"ARG_OF_PERICENTER":181.3534,"MEAN_ANOMALY":178.7701,"EPHEMERIS_TYPE":0,"NORAD_CAT_ID":60489,"ELEMENT_SET_NO":999,"REV_AT_EPOCH":10498,"BSTAR":0.00065473,"MEAN_MOTION_DOT":0.00024939,"MEAN_MOTION_DDOT":0},{"OBJECT_NAME":"FLOCK 4BE-23","OBJECT_ID":"2024-149Y","EPOCH":"2026-07-05T10:55:26.288832","CLASSIFICATION_TYPE":"U","MEAN_MOTION":15.38175309,"ECCENTRICITY":0.00037558,"INCLINATION":97.3773,"RA_OF_ASC_NODE":268.9538,"ARG_OF_PERICENTER":183.8165,"MEAN_ANOMALY":176.3052,"EPHEMERIS_TYPE":0,"NORAD_CAT_ID":60490,"ELEMENT_SET_NO":999,"REV_AT_EPOCH":10500,"BSTAR":0.00050379986,"MEAN_MOTION_DOT":0.00018884,"MEAN_MOTION_DDOT":0}]}
