FLOCK 4Q-11             
1 58273U 23174T   26186.22464315  .00036442  00000+0  63798-3 0  9996
2 58273  97.3861 275.3842 0006833 102.0151 258.1867 15.50502621148380
FLOCK 4Q-28             
1 58280U 23174AA  26186.25062078  .00049411  00000+0  70030-3 0  9994
2 58280  97.3877 278.0543 0005578  93.1656 267.0237 15.56307136148557
FLOCK 4Q-27             
1 58282U 23174AC  26186.18936971  .00063487  00000+0  89120-3 0  9999
2 58282  97.3802 277.4043 0004764  98.6174 261.5621 15.56512963148558
FLOCK 4Q-7              
1 58318U 23174BQ  26186.20994579  .00056235  00000+0  78100-3 0  9999
2 58318  97.3910 278.3254 0005473  79.9664 280.2208 15.56828102148550
FLOCK 4Q-2              
1 58320U 23174BS  26186.59648319  .00030541  00000+0  53548-3 0  9993
2 58320  97.3834 275.4825 0005705  80.6058 279.5838 15.50502126148452
FLOCK 4Q-9              
1 58322U 23174BU  26186.22907598  .00046168  00000+0  79459-3 0  9993
2 58322  97.3858 275.2068 0006574  83.4067 276.7933 15.50936665148389
FLOCK 4Q-4              
1 58327U 23174BZ  26186.23398644  .00036787  00000+0  66661-3 0  9992
2 58327  97.3813 274.3543 0006567 102.4361 257.7625 15.49521329148353
FLOCK 4Q-13             
1 58328U 23174CA  26186.23834933  .00037940  00000+0  61783-3 0  9991
2 58328  97.4002 277.5915 0006618  86.3029 273.8981 15.52532325148470
FLOCK 4BE-7             
1 60481U 24149P   26186.20903366  .00038175  00000+0  92041-3 0  9993
2 60481  97.3751 269.4402 0003570 176.0879 184.0397 15.41129001105027
FLOCK 4BE-36            
1 60486U 24149U   26186.21094370  .00027739  00000+0  62343-3 0  9991
2 60486  97.3737 270.8618 0003973 180.6763 179.4480 15.43304497105130
FLOCK 4BE-25            
1 60487U 24149V   26186.22755742  .00023424  00000+0  60084-3 0  9997
2 60487  97.3790 269.5056 0002976 165.3096 194.8236 15.39343171105016
FLOCK 4BE-31            
1 60488U 24149W   26186.22498597  .00033135  00000+0  70614-3 0  9990
2 60488  97.3792 271.7872 0003025 176.2961 183.8311 15.44851343105167
FLOCK 4BE-20            
1 60489U 24149X   26186.19993856  .00024939  00000+0  65473-3 0  9994
2 60489  97.3689 268.3111 0004155 181.3534 178.7701 15.38612490104985
FLOCK 4BE-23            
1 60490U 24149Y   26186.45516538  .00018884  00000+0  50380-3 0  9996
2 60490  97.3773 268.9538 0003755 183.8165 176.3052 15.38175309105002
